[
    {
        "Altitude(m)": 611967.2059928285,
        "Argument of Periapsis(deg)": 0.0,
        "Eccentricity": 0.0,
        "Inclination(deg)": 60.0,
        "Latitude(deg)": 59.140243604153795,
        "Longitude(deg)": 131.0921683742474,
        "Mean Anomaly(deg)": 98.18179999999998,
        "RAAN(deg)": 125.00000000000001,
        "Satellite Name": "Test1 556",
        "Satellite Number": 556,
        "Semi-Major Axis(m)": 6980739.136638005,
        "Time(s)": 0
    },
    {
        "Altitude(m)": 611934.4054976135,
        "Argument of Periapsis(deg)": 0.00010418945913296404,
        "Eccentricity": 0.0,
        "Inclination(deg)": 60.0,
        "Latitude(deg)": 58.986604474540236,
        "Longitude(deg)": 132.2154160798231,
        "Mean Anomaly(deg)": 98.80190614546183,
        "RAAN(deg)": 124.99957995086027,
        "Satellite Name": "Test1 556",
        "Satellite Number": 556,
        "Semi-Major Axis(m)": 6980739.136638005,
        "Time(s)": 10
    }
]